{"type":"FeatureCollection","metadata":{"generated":1589263501,"url":"https://google.com","status":200,"title":"nychealth/coronavirus-data GitHub Data formatted to GeoJSON with long/lat","count":177},"features":[
{"type":"Feature","id":10001,"properties":{"place":10001,"zipcode":10001,"positive":320,"total":1122,"percentpositive":28.52},"geometry":{
"type":"Point","coordinates":[-73.99653,40.750742]}
},
{"type":"Feature","id":10002,"properties":{"place":10002,"zipcode":10002,"positive":930,"total":2444,"percentpositive":38.05},"geometry":{
"type":"Point","coordinates":[-73.987,40.71704]}
},
{"type":"Feature","id":10003,"properties":{"place":10003,"zipcode":10003,"positive":414,"total":1532,"percentpositive":27.02},"geometry":{
"type":"Point","coordinates":[-73.98935,40.732509]}
},
{"type":"Feature","id":10004,"properties":{"place":10004,"zipcode":10004,"positive":28,"total":107,"percentpositive":26.17},"geometry":{
"type":"Point","coordinates":[-74.04118,40.699226]}
},
{"type":"Feature","id":10005,"properties":{"place":10005,"zipcode":10005,"positive":54,"total":255,"percentpositive":21.18},"geometry":{
"type":"Point","coordinates":[-74.00858,40.706019]}
},
{"type":"Feature","id":10006,"properties":{"place":10006,"zipcode":10006,"positive":23,"total":108,"percentpositive":21.3},"geometry":{
"type":"Point","coordinates":[-74.01342,40.707904]}
},
{"type":"Feature","id":10007,"properties":{"place":10007,"zipcode":10007,"positive":48,"total":241,"percentpositive":19.92},"geometry":{
"type":"Point","coordinates":[-74.00721,40.714754]}
},
{"type":"Feature","id":10009,"properties":{"place":10009,"zipcode":10009,"positive":631,"total":2097,"percentpositive":30.09},"geometry":{
"type":"Point","coordinates":[-73.97864,40.727093]}
},
{"type":"Feature","id":10010,"properties":{"place":10010,"zipcode":10010,"positive":242,"total":1159,"percentpositive":20.88},"geometry":{
"type":"Point","coordinates":[-73.98205,40.739022]}
},
{"type":"Feature","id":10011,"properties":{"place":10011,"zipcode":10011,"positive":477,"total":1588,"percentpositive":30.04},"geometry":{
"type":"Point","coordinates":[-74.00012,40.741012]}
},
{"type":"Feature","id":10012,"properties":{"place":10012,"zipcode":10012,"positive":151,"total":580,"percentpositive":26.03},"geometry":{
"type":"Point","coordinates":[-73.99834,40.72596]}
},
{"type":"Feature","id":10013,"properties":{"place":10013,"zipcode":10013,"positive":231,"total":855,"percentpositive":27.02},"geometry":{
"type":"Point","coordinates":[-74.00526,40.720666]}
},
{"type":"Feature","id":10014,"properties":{"place":10014,"zipcode":10014,"positive":275,"total":926,"percentpositive":29.7},"geometry":{
"type":"Point","coordinates":[-74.00532,40.734718]}
},
{"type":"Feature","id":10016,"properties":{"place":10016,"zipcode":10016,"positive":625,"total":2407,"percentpositive":25.97},"geometry":{
"type":"Point","coordinates":[-73.97759,40.74618]}
},
{"type":"Feature","id":10017,"properties":{"place":10017,"zipcode":10017,"positive":130,"total":592,"percentpositive":21.96},"geometry":{
"type":"Point","coordinates":[-73.97231,40.752159]}
},
{"type":"Feature","id":10018,"properties":{"place":10018,"zipcode":10018,"positive":196,"total":622,"percentpositive":31.51},"geometry":{
"type":"Point","coordinates":[-73.99337,40.755101]}
},
{"type":"Feature","id":10019,"properties":{"place":10019,"zipcode":10019,"positive":543,"total":1811,"percentpositive":29.98},"geometry":{
"type":"Point","coordinates":[-73.9856,40.765714]}
},
{"type":"Feature","id":10021,"properties":{"place":10021,"zipcode":10021,"positive":512,"total":2036,"percentpositive":25.15},"geometry":{
"type":"Point","coordinates":[-73.96045,40.76842]}
},
{"type":"Feature","id":10022,"properties":{"place":10022,"zipcode":10022,"positive":312,"total":1266,"percentpositive":24.64},"geometry":{
"type":"Point","coordinates":[-73.96732,40.759015]}
},
{"type":"Feature","id":10023,"properties":{"place":10023,"zipcode":10023,"positive":510,"total":2032,"percentpositive":25.1},"geometry":{
"type":"Point","coordinates":[-73.98285,40.776099]}
},
{"type":"Feature","id":10024,"properties":{"place":10024,"zipcode":10024,"positive":593,"total":2179,"percentpositive":27.21},"geometry":{
"type":"Point","coordinates":[-73.97709,40.786387]}
},
{"type":"Feature","id":10025,"properties":{"place":10025,"zipcode":10025,"positive":1138,"total":3728,"percentpositive":30.53},"geometry":{
"type":"Point","coordinates":[-73.96811,40.798502]}
},
{"type":"Feature","id":10026,"properties":{"place":10026,"zipcode":10026,"positive":595,"total":1722,"percentpositive":34.55},"geometry":{
"type":"Point","coordinates":[-73.95471,40.802853]}
},
{"type":"Feature","id":10027,"properties":{"place":10027,"zipcode":10027,"positive":904,"total":2602,"percentpositive":34.74},"geometry":{
"type":"Point","coordinates":[-73.95499,40.812665]}
},
{"type":"Feature","id":10028,"properties":{"place":10028,"zipcode":10028,"positive":440,"total":1735,"percentpositive":25.36},"geometry":{
"type":"Point","coordinates":[-73.9541,40.776777]}
},
{"type":"Feature","id":10029,"properties":{"place":10029,"zipcode":10029,"positive":1630,"total":4067,"percentpositive":40.08},"geometry":{
"type":"Point","coordinates":[-73.94575,40.791586]}
},
{"type":"Feature","id":10030,"properties":{"place":10030,"zipcode":10030,"positive":444,"total":1231,"percentpositive":36.07},"geometry":{
"type":"Point","coordinates":[-73.94351,40.818151]}
},
{"type":"Feature","id":10031,"properties":{"place":10031,"zipcode":10031,"positive":1153,"total":2741,"percentpositive":42.06},"geometry":{
"type":"Point","coordinates":[-73.94879,40.826201]}
},
{"type":"Feature","id":10032,"properties":{"place":10032,"zipcode":10032,"positive":1321,"total":3238,"percentpositive":40.8},"geometry":{
"type":"Point","coordinates":[-73.94154,40.840686]}
},
{"type":"Feature","id":10033,"properties":{"place":10033,"zipcode":10033,"positive":1180,"total":2835,"percentpositive":41.62},"geometry":{
"type":"Point","coordinates":[-73.93496,40.848764]}
},
{"type":"Feature","id":10034,"properties":{"place":10034,"zipcode":10034,"positive":627,"total":1892,"percentpositive":33.14},"geometry":{
"type":"Point","coordinates":[-73.92,40.867653]}
},
{"type":"Feature","id":10035,"properties":{"place":10035,"zipcode":10035,"positive":850,"total":2087,"percentpositive":40.73},"geometry":{
"type":"Point","coordinates":[-73.93359,40.802395]}
},
{"type":"Feature","id":10036,"properties":{"place":10036,"zipcode":10036,"positive":374,"total":1231,"percentpositive":30.38},"geometry":{
"type":"Point","coordinates":[-73.99019,40.759511]}
},
{"type":"Feature","id":10037,"properties":{"place":10037,"zipcode":10037,"positive":388,"total":1071,"percentpositive":36.23},"geometry":{
"type":"Point","coordinates":[-73.93616,40.813385]}
},
{"type":"Feature","id":10038,"properties":{"place":10038,"zipcode":10038,"positive":227,"total":698,"percentpositive":32.52},"geometry":{
"type":"Point","coordinates":[-74.00365,40.709677]}
},
{"type":"Feature","id":10039,"properties":{"place":10039,"zipcode":10039,"positive":458,"total":1283,"percentpositive":35.7},"geometry":{
"type":"Point","coordinates":[-73.9371,40.826181]}
},
{"type":"Feature","id":10040,"properties":{"place":10040,"zipcode":10040,"positive":992,"total":2573,"percentpositive":38.55},"geometry":{
"type":"Point","coordinates":[-73.92853,40.858704]}
},
{"type":"Feature","id":10044,"properties":{"place":10044,"zipcode":10044,"positive":197,"total":504,"percentpositive":39.09},"geometry":{
"type":"Point","coordinates":[-73.94917,40.762174]}
},
{"type":"Feature","id":10065,"properties":{"place":10065,"zipcode":10065,"positive":302,"total":1320,"percentpositive":22.88},"geometry":{
"type":"Point","coordinates":[-73.9624327,40.7645239]}
},
{"type":"Feature","id":10069,"properties":{"place":10069,"zipcode":10069,"positive":49,"total":197,"percentpositive":24.87},"geometry":{
"type":"Point","coordinates":[-73.9905,40.775477]}
},
{"type":"Feature","id":10075,"properties":{"place":10075,"zipcode":10075,"positive":348,"total":1206,"percentpositive":28.86},"geometry":{
"type":"Point","coordinates":[-73.9558204,40.7728432]}
},
{"type":"Feature","id":10128,"properties":{"place":10128,"zipcode":10128,"positive":583,"total":2402,"percentpositive":24.27},"geometry":{
"type":"Point","coordinates":[-73.95039,40.781894]}
},
{"type":"Feature","id":10280,"properties":{"place":10280,"zipcode":10280,"positive":41,"total":207,"percentpositive":19.81},"geometry":{
"type":"Point","coordinates":[-74.0178,40.707467]}
},
{"type":"Feature","id":10282,"properties":{"place":10282,"zipcode":10282,"positive":64,"total":196,"percentpositive":32.65},"geometry":{
"type":"Point","coordinates":[-74.01433,40.717179]}
},
{"type":"Feature","id":10301,"properties":{"place":10301,"zipcode":10301,"positive":1073,"total":2785,"percentpositive":38.53},"geometry":{
"type":"Point","coordinates":[-74.09432,40.631775]}
},
{"type":"Feature","id":10302,"properties":{"place":10302,"zipcode":10302,"positive":596,"total":1415,"percentpositive":42.12},"geometry":{
"type":"Point","coordinates":[-74.13715,40.631127]}
},
{"type":"Feature","id":10303,"properties":{"place":10303,"zipcode":10303,"positive":791,"total":1990,"percentpositive":39.75},"geometry":{
"type":"Point","coordinates":[-74.16239,40.629448]}
},
{"type":"Feature","id":10304,"properties":{"place":10304,"zipcode":10304,"positive":1297,"total":3391,"percentpositive":38.25},"geometry":{
"type":"Point","coordinates":[-74.08991,40.60787]}
},
{"type":"Feature","id":10305,"properties":{"place":10305,"zipcode":10305,"positive":1143,"total":3201,"percentpositive":35.71},"geometry":{
"type":"Point","coordinates":[-74.07503,40.599021]}
},
{"type":"Feature","id":10306,"properties":{"place":10306,"zipcode":10306,"positive":1367,"total":4122,"percentpositive":33.16},"geometry":{
"type":"Point","coordinates":[-74.11785,40.569394]}
},
{"type":"Feature","id":10307,"properties":{"place":10307,"zipcode":10307,"positive":360,"total":1067,"percentpositive":33.74},"geometry":{
"type":"Point","coordinates":[-74.24387,40.508274]}
},
{"type":"Feature","id":10308,"properties":{"place":10308,"zipcode":10308,"positive":602,"total":1908,"percentpositive":31.55},"geometry":{
"type":"Point","coordinates":[-74.15098,40.551353]}
},
{"type":"Feature","id":10309,"properties":{"place":10309,"zipcode":10309,"positive":797,"total":2404,"percentpositive":33.15},"geometry":{
"type":"Point","coordinates":[-74.21304,40.529749]}
},
{"type":"Feature","id":10310,"properties":{"place":10310,"zipcode":10310,"positive":684,"total":1906,"percentpositive":35.89},"geometry":{
"type":"Point","coordinates":[-74.11551,40.63212]}
},
{"type":"Feature","id":10312,"properties":{"place":10312,"zipcode":10312,"positive":1422,"total":4180,"percentpositive":34.02},"geometry":{
"type":"Point","coordinates":[-74.17628,40.543117]}
},
{"type":"Feature","id":10314,"properties":{"place":10314,"zipcode":10314,"positive":2492,"total":6829,"percentpositive":36.49},"geometry":{
"type":"Point","coordinates":[-74.14513,40.606337]}
},
{"type":"Feature","id":10451,"properties":{"place":10451,"zipcode":10451,"positive":1475,"total":3552,"percentpositive":41.53},"geometry":{
"type":"Point","coordinates":[-73.9223,40.819729]}
},
{"type":"Feature","id":10452,"properties":{"place":10452,"zipcode":10452,"positive":2091,"total":4984,"percentpositive":41.95},"geometry":{
"type":"Point","coordinates":[-73.92234,40.838745]}
},
{"type":"Feature","id":10453,"properties":{"place":10453,"zipcode":10453,"positive":2128,"total":4983,"percentpositive":42.71},"geometry":{
"type":"Point","coordinates":[-73.91214,40.853017]}
},
{"type":"Feature","id":10454,"properties":{"place":10454,"zipcode":10454,"positive":1033,"total":2699,"percentpositive":38.27},"geometry":{
"type":"Point","coordinates":[-73.91628,40.805968]}
},
{"type":"Feature","id":10455,"properties":{"place":10455,"zipcode":10455,"positive":1149,"total":2743,"percentpositive":41.89},"geometry":{
"type":"Point","coordinates":[-73.90771,40.815559]}
},
{"type":"Feature","id":10456,"properties":{"place":10456,"zipcode":10456,"positive":2254,"total":5614,"percentpositive":40.15},"geometry":{
"type":"Point","coordinates":[-73.90856,40.829676]}
},
{"type":"Feature","id":10457,"properties":{"place":10457,"zipcode":10457,"positive":1891,"total":4610,"percentpositive":41.02},"geometry":{
"type":"Point","coordinates":[-73.89861,40.846745]}
},
{"type":"Feature","id":10458,"properties":{"place":10458,"zipcode":10458,"positive":1846,"total":4549,"percentpositive":40.58},"geometry":{
"type":"Point","coordinates":[-73.88881,40.864166]}
},
{"type":"Feature","id":10459,"properties":{"place":10459,"zipcode":10459,"positive":1371,"total":3080,"percentpositive":44.51},"geometry":{
"type":"Point","coordinates":[-73.89327,40.825432]}
},
{"type":"Feature","id":10460,"properties":{"place":10460,"zipcode":10460,"positive":1489,"total":3538,"percentpositive":42.09},"geometry":{
"type":"Point","coordinates":[-73.88036,40.84095]}
},
{"type":"Feature","id":10461,"properties":{"place":10461,"zipcode":10461,"positive":1758,"total":4594,"percentpositive":38.27},"geometry":{
"type":"Point","coordinates":[-73.83819,40.842917]}
},
{"type":"Feature","id":10462,"properties":{"place":10462,"zipcode":10462,"positive":2098,"total":5262,"percentpositive":39.87},"geometry":{
"type":"Point","coordinates":[-73.85862,40.842173]}
},
{"type":"Feature","id":10463,"properties":{"place":10463,"zipcode":10463,"positive":1740,"total":4677,"percentpositive":37.2},"geometry":{
"type":"Point","coordinates":[-73.90749,40.881086]}
},
{"type":"Feature","id":10464,"properties":{"place":10464,"zipcode":10464,"positive":115,"total":413,"percentpositive":27.85},"geometry":{
"type":"Point","coordinates":[-73.78903,40.857017]}
},
{"type":"Feature","id":10465,"properties":{"place":10465,"zipcode":10465,"positive":1414,"total":4005,"percentpositive":35.31},"geometry":{
"type":"Point","coordinates":[-73.81752,40.825727]}
},
{"type":"Feature","id":10466,"properties":{"place":10466,"zipcode":10466,"positive":2171,"total":5004,"percentpositive":43.39},"geometry":{
"type":"Point","coordinates":[-73.84702,40.89095]}
},
{"type":"Feature","id":10467,"properties":{"place":10467,"zipcode":10467,"positive":3058,"total":6985,"percentpositive":43.78},"geometry":{
"type":"Point","coordinates":[-73.86937,40.872265]}
},
{"type":"Feature","id":10468,"properties":{"place":10468,"zipcode":10468,"positive":2276,"total":4963,"percentpositive":45.86},"geometry":{
"type":"Point","coordinates":[-73.89916,40.867107]}
},
{"type":"Feature","id":10469,"properties":{"place":10469,"zipcode":10469,"positive":2748,"total":6223,"percentpositive":44.16},"geometry":{
"type":"Point","coordinates":[-73.84735,40.868643]}
},
{"type":"Feature","id":10470,"properties":{"place":10470,"zipcode":10470,"positive":414,"total":1099,"percentpositive":37.67},"geometry":{
"type":"Point","coordinates":[-73.86072,40.900629]}
},
{"type":"Feature","id":10471,"properties":{"place":10471,"zipcode":10471,"positive":555,"total":1570,"percentpositive":35.35},"geometry":{
"type":"Point","coordinates":[-73.90347,40.900819]}
},
{"type":"Feature","id":10472,"properties":{"place":10472,"zipcode":10472,"positive":1771,"total":3813,"percentpositive":46.45},"geometry":{
"type":"Point","coordinates":[-73.86845,40.830409]}
},
{"type":"Feature","id":10473,"properties":{"place":10473,"zipcode":10473,"positive":1775,"total":4313,"percentpositive":41.15},"geometry":{
"type":"Point","coordinates":[-73.85893,40.818514]}
},
{"type":"Feature","id":10474,"properties":{"place":10474,"zipcode":10474,"positive":299,"total":719,"percentpositive":41.59},"geometry":{
"type":"Point","coordinates":[-73.88755,40.81321]}
},
{"type":"Feature","id":10475,"properties":{"place":10475,"zipcode":10475,"positive":1600,"total":4147,"percentpositive":38.58},"geometry":{
"type":"Point","coordinates":[-73.82541,40.878522]}
},
{"type":"Feature","id":11004,"properties":{"place":11004,"zipcode":11004,"positive":531,"total":1023,"percentpositive":51.91},"geometry":{
"type":"Point","coordinates":[-73.70956,40.742944]}
},
{"type":"Feature","id":11101,"properties":{"place":11101,"zipcode":11101,"positive":562,"total":1700,"percentpositive":33.06},"geometry":{
"type":"Point","coordinates":[-73.93907,40.745341]}
},
{"type":"Feature","id":11102,"properties":{"place":11102,"zipcode":11102,"positive":549,"total":1459,"percentpositive":37.63},"geometry":{
"type":"Point","coordinates":[-73.92462,40.771286]}
},
{"type":"Feature","id":11103,"properties":{"place":11103,"zipcode":11103,"positive":486,"total":1367,"percentpositive":35.55},"geometry":{
"type":"Point","coordinates":[-73.91091,40.762968]}
},
{"type":"Feature","id":11104,"properties":{"place":11104,"zipcode":11104,"positive":447,"total":1184,"percentpositive":37.75},"geometry":{
"type":"Point","coordinates":[-73.91949,40.743796]}
},
{"type":"Feature","id":11105,"properties":{"place":11105,"zipcode":11105,"positive":453,"total":1415,"percentpositive":32.01},"geometry":{
"type":"Point","coordinates":[-73.90816,40.774686]}
},
{"type":"Feature","id":11106,"properties":{"place":11106,"zipcode":11106,"positive":587,"total":1594,"percentpositive":36.83},"geometry":{
"type":"Point","coordinates":[-73.93147,40.762012]}
},
{"type":"Feature","id":11109,"properties":{"place":11109,"zipcode":11109,"positive":47,"total":221,"percentpositive":21.27},"geometry":{
"type":"Point","coordinates":[-73.870779,40.651378]}
},
{"type":"Feature","id":11201,"properties":{"place":11201,"zipcode":11201,"positive":601,"total":2244,"percentpositive":26.78},"geometry":{
"type":"Point","coordinates":[-73.98907,40.695286]}
},
{"type":"Feature","id":11203,"properties":{"place":11203,"zipcode":11203,"positive":1865,"total":4252,"percentpositive":43.86},"geometry":{
"type":"Point","coordinates":[-73.93304,40.649059]}
},
{"type":"Feature","id":11204,"properties":{"place":11204,"zipcode":11204,"positive":1798,"total":4602,"percentpositive":39.07},"geometry":{
"type":"Point","coordinates":[-73.98473,40.618944]}
},
{"type":"Feature","id":11205,"properties":{"place":11205,"zipcode":11205,"positive":653,"total":2040,"percentpositive":32.01},"geometry":{
"type":"Point","coordinates":[-73.96529,40.694214]}
},
{"type":"Feature","id":11206,"properties":{"place":11206,"zipcode":11206,"positive":1388,"total":3740,"percentpositive":37.11},"geometry":{
"type":"Point","coordinates":[-73.94288,40.702348]}
},
{"type":"Feature","id":11207,"properties":{"place":11207,"zipcode":11207,"positive":1863,"total":4584,"percentpositive":40.64},"geometry":{
"type":"Point","coordinates":[-73.89424,40.670874]}
},
{"type":"Feature","id":11208,"properties":{"place":11208,"zipcode":11208,"positive":2088,"total":4654,"percentpositive":44.86},"geometry":{
"type":"Point","coordinates":[-73.87248,40.672666]}
},
{"type":"Feature","id":11209,"properties":{"place":11209,"zipcode":11209,"positive":1043,"total":3060,"percentpositive":34.08},"geometry":{
"type":"Point","coordinates":[-74.0295,40.62327]}
},
{"type":"Feature","id":11210,"properties":{"place":11210,"zipcode":11210,"positive":1530,"total":3603,"percentpositive":42.46},"geometry":{
"type":"Point","coordinates":[-73.94552,40.627946]}
},
{"type":"Feature","id":11211,"properties":{"place":11211,"zipcode":11211,"positive":1859,"total":5195,"percentpositive":35.78},"geometry":{
"type":"Point","coordinates":[-73.95427,40.71209]}
},
{"type":"Feature","id":11212,"properties":{"place":11212,"zipcode":11212,"positive":1632,"total":4066,"percentpositive":40.14},"geometry":{
"type":"Point","coordinates":[-73.91328,40.662191]}
},
{"type":"Feature","id":11213,"properties":{"place":11213,"zipcode":11213,"positive":1255,"total":3018,"percentpositive":41.58},"geometry":{
"type":"Point","coordinates":[-73.93459,40.670937]}
},
{"type":"Feature","id":11214,"properties":{"place":11214,"zipcode":11214,"positive":1376,"total":3378,"percentpositive":40.73},"geometry":{
"type":"Point","coordinates":[-73.99611,40.598994]}
},
{"type":"Feature","id":11215,"properties":{"place":11215,"zipcode":11215,"positive":555,"total":1966,"percentpositive":28.23},"geometry":{
"type":"Point","coordinates":[-73.9856,40.667508]}
},
{"type":"Feature","id":11216,"properties":{"place":11216,"zipcode":11216,"positive":656,"total":1915,"percentpositive":34.26},"geometry":{
"type":"Point","coordinates":[-73.94824,40.680398]}
},
{"type":"Feature","id":11217,"properties":{"place":11217,"zipcode":11217,"positive":530,"total":1457,"percentpositive":36.38},"geometry":{
"type":"Point","coordinates":[-73.97783,40.68209]}
},
{"type":"Feature","id":11218,"properties":{"place":11218,"zipcode":11218,"positive":1545,"total":3728,"percentpositive":41.44},"geometry":{
"type":"Point","coordinates":[-73.97595,40.644552]}
},
{"type":"Feature","id":11219,"properties":{"place":11219,"zipcode":11219,"positive":2610,"total":7103,"percentpositive":36.75},"geometry":{
"type":"Point","coordinates":[-73.99629,40.632449]}
},
{"type":"Feature","id":11220,"properties":{"place":11220,"zipcode":11220,"positive":1381,"total":3256,"percentpositive":42.41},"geometry":{
"type":"Point","coordinates":[-74.01574,40.641436]}
},
{"type":"Feature","id":11221,"properties":{"place":11221,"zipcode":11221,"positive":1135,"total":2903,"percentpositive":39.1},"geometry":{
"type":"Point","coordinates":[-73.92637,40.691234]}
},
{"type":"Feature","id":11222,"properties":{"place":11222,"zipcode":11222,"positive":401,"total":1199,"percentpositive":33.44},"geometry":{
"type":"Point","coordinates":[-73.94559,40.726302]}
},
{"type":"Feature","id":11223,"properties":{"place":11223,"zipcode":11223,"positive":1541,"total":3899,"percentpositive":39.52},"geometry":{
"type":"Point","coordinates":[-73.97229,40.598142]}
},
{"type":"Feature","id":11224,"properties":{"place":11224,"zipcode":11224,"positive":1028,"total":2534,"percentpositive":40.57},"geometry":{
"type":"Point","coordinates":[-73.99172,40.576589]}
},
{"type":"Feature","id":11225,"properties":{"place":11225,"zipcode":11225,"positive":1065,"total":2608,"percentpositive":40.84},"geometry":{
"type":"Point","coordinates":[-73.95509,40.662892]}
},
{"type":"Feature","id":11226,"properties":{"place":11226,"zipcode":11226,"positive":2000,"total":4612,"percentpositive":43.37},"geometry":{
"type":"Point","coordinates":[-73.95553,40.645256]}
},
{"type":"Feature","id":11228,"properties":{"place":11228,"zipcode":11228,"positive":589,"total":1567,"percentpositive":37.59},"geometry":{
"type":"Point","coordinates":[-74.01168,40.617563]}
},
{"type":"Feature","id":11229,"properties":{"place":11229,"zipcode":11229,"positive":1424,"total":3703,"percentpositive":38.46},"geometry":{
"type":"Point","coordinates":[-73.94118,40.599256]}
},
{"type":"Feature","id":11230,"properties":{"place":11230,"zipcode":11230,"positive":2071,"total":5101,"percentpositive":40.6},"geometry":{
"type":"Point","coordinates":[-73.96427,40.622994]}
},
{"type":"Feature","id":11231,"properties":{"place":11231,"zipcode":11231,"positive":377,"total":1091,"percentpositive":34.56},"geometry":{
"type":"Point","coordinates":[-74.00254,40.6788]}
},
{"type":"Feature","id":11232,"properties":{"place":11232,"zipcode":11232,"positive":453,"total":985,"percentpositive":45.99},"geometry":{
"type":"Point","coordinates":[-74.00424,40.655481]}
},
{"type":"Feature","id":11233,"properties":{"place":11233,"zipcode":11233,"positive":1154,"total":2813,"percentpositive":41.02},"geometry":{
"type":"Point","coordinates":[-73.91858,40.676938]}
},
{"type":"Feature","id":11234,"properties":{"place":11234,"zipcode":11234,"positive":2089,"total":4955,"percentpositive":42.16},"geometry":{
"type":"Point","coordinates":[-73.9216,40.618561]}
},
{"type":"Feature","id":11235,"properties":{"place":11235,"zipcode":11235,"positive":1860,"total":4542,"percentpositive":40.95},"geometry":{
"type":"Point","coordinates":[-73.95019,40.583803]}
},
{"type":"Feature","id":11236,"properties":{"place":11236,"zipcode":11236,"positive":2470,"total":5422,"percentpositive":45.56},"geometry":{
"type":"Point","coordinates":[-73.90362,40.640527]}
},
{"type":"Feature","id":11237,"properties":{"place":11237,"zipcode":11237,"positive":847,"total":1895,"percentpositive":44.7},"geometry":{
"type":"Point","coordinates":[-73.91993,40.703355]}
},
{"type":"Feature","id":11238,"properties":{"place":11238,"zipcode":11238,"positive":689,"total":1864,"percentpositive":36.96},"geometry":{
"type":"Point","coordinates":[-73.96257,40.680145]}
},
{"type":"Feature","id":11239,"properties":{"place":11239,"zipcode":11239,"positive":461,"total":1099,"percentpositive":41.95},"geometry":{
"type":"Point","coordinates":[-73.87919,40.645848]}
},
{"type":"Feature","id":11354,"properties":{"place":11354,"zipcode":11354,"positive":998,"total":2213,"percentpositive":45.1},"geometry":{
"type":"Point","coordinates":[-73.82496,40.767969]}
},
{"type":"Feature","id":11355,"properties":{"place":11355,"zipcode":11355,"positive":1140,"total":2581,"percentpositive":44.17},"geometry":{
"type":"Point","coordinates":[-73.81941,40.749463]}
},
{"type":"Feature","id":11356,"properties":{"place":11356,"zipcode":11356,"positive":505,"total":1201,"percentpositive":42.05},"geometry":{
"type":"Point","coordinates":[-73.84366,40.785462]}
},
{"type":"Feature","id":11357,"properties":{"place":11357,"zipcode":11357,"positive":754,"total":1941,"percentpositive":38.85},"geometry":{
"type":"Point","coordinates":[-73.80922,40.784453]}
},
{"type":"Feature","id":11358,"properties":{"place":11358,"zipcode":11358,"positive":513,"total":1409,"percentpositive":36.41},"geometry":{
"type":"Point","coordinates":[-73.79612,40.760522]}
},
{"type":"Feature","id":11360,"properties":{"place":11360,"zipcode":11360,"positive":291,"total":891,"percentpositive":32.66},"geometry":{
"type":"Point","coordinates":[-73.78005,40.780386]}
},
{"type":"Feature","id":11361,"properties":{"place":11361,"zipcode":11361,"positive":406,"total":1126,"percentpositive":36.06},"geometry":{
"type":"Point","coordinates":[-73.77392,40.763177]}
},
{"type":"Feature","id":11362,"properties":{"place":11362,"zipcode":11362,"positive":287,"total":800,"percentpositive":35.88},"geometry":{
"type":"Point","coordinates":[-73.73322,40.759686]}
},
{"type":"Feature","id":11363,"properties":{"place":11363,"zipcode":11363,"positive":96,"total":273,"percentpositive":35.16},"geometry":{
"type":"Point","coordinates":[-73.74644,40.772636]}
},
{"type":"Feature","id":11364,"properties":{"place":11364,"zipcode":11364,"positive":441,"total":1270,"percentpositive":34.72},"geometry":{
"type":"Point","coordinates":[-73.75994,40.746718]}
},
{"type":"Feature","id":11365,"properties":{"place":11365,"zipcode":11365,"positive":759,"total":1963,"percentpositive":38.67},"geometry":{
"type":"Point","coordinates":[-73.79209,40.738983]}
},
{"type":"Feature","id":11366,"properties":{"place":11366,"zipcode":11366,"positive":359,"total":859,"percentpositive":41.79},"geometry":{
"type":"Point","coordinates":[-73.79502,40.726137]}
},
{"type":"Feature","id":11367,"properties":{"place":11367,"zipcode":11367,"positive":942,"total":2419,"percentpositive":38.94},"geometry":{
"type":"Point","coordinates":[-73.82145,40.728614]}
},
{"type":"Feature","id":11368,"properties":{"place":11368,"zipcode":11368,"positive":4033,"total":7481,"percentpositive":53.91},"geometry":{
"type":"Point","coordinates":[-73.85838,40.747106]}
},
{"type":"Feature","id":11369,"properties":{"place":11369,"zipcode":11369,"positive":1435,"total":2828,"percentpositive":50.74},"geometry":{
"type":"Point","coordinates":[-73.87051,40.762854]}
},
{"type":"Feature","id":11370,"properties":{"place":11370,"zipcode":11370,"positive":1254,"total":2669,"percentpositive":46.98},"geometry":{
"type":"Point","coordinates":[-73.89052,40.763015]}
},
{"type":"Feature","id":11372,"properties":{"place":11372,"zipcode":11372,"positive":2287,"total":4511,"percentpositive":50.7},"geometry":{
"type":"Point","coordinates":[-73.88433,40.750146]}
},
{"type":"Feature","id":11373,"properties":{"place":11373,"zipcode":11373,"positive":2944,"total":6052,"percentpositive":48.65},"geometry":{
"type":"Point","coordinates":[-73.87804,40.736076]}
},
{"type":"Feature","id":11374,"properties":{"place":11374,"zipcode":11374,"positive":985,"total":2543,"percentpositive":38.73},"geometry":{
"type":"Point","coordinates":[-73.8609,40.724945]}
},
{"type":"Feature","id":11375,"properties":{"place":11375,"zipcode":11375,"positive":1417,"total":3681,"percentpositive":38.49},"geometry":{
"type":"Point","coordinates":[-73.84582,40.720535]}
},
{"type":"Feature","id":11377,"properties":{"place":11377,"zipcode":11377,"positive":1961,"total":4659,"percentpositive":42.09},"geometry":{
"type":"Point","coordinates":[-73.90377,40.742869]}
},
{"type":"Feature","id":11378,"properties":{"place":11378,"zipcode":11378,"positive":673,"total":1722,"percentpositive":39.08},"geometry":{
"type":"Point","coordinates":[-73.90271,40.724096]}
},
{"type":"Feature","id":11379,"properties":{"place":11379,"zipcode":11379,"positive":741,"total":1928,"percentpositive":38.43},"geometry":{
"type":"Point","coordinates":[-73.87925,40.716028]}
},
{"type":"Feature","id":11385,"properties":{"place":11385,"zipcode":11385,"positive":1955,"total":4666,"percentpositive":41.9},"geometry":{
"type":"Point","coordinates":[-73.89285,40.703069]}
},
{"type":"Feature","id":11411,"properties":{"place":11411,"zipcode":11411,"positive":632,"total":1347,"percentpositive":46.92},"geometry":{
"type":"Point","coordinates":[-73.73574,40.693538]}
},
{"type":"Feature","id":11412,"properties":{"place":11412,"zipcode":11412,"positive":1164,"total":2565,"percentpositive":45.38},"geometry":{
"type":"Point","coordinates":[-73.75948,40.697188]}
},
{"type":"Feature","id":11413,"properties":{"place":11413,"zipcode":11413,"positive":1217,"total":2699,"percentpositive":45.09},"geometry":{
"type":"Point","coordinates":[-73.75141,40.670138]}
},
{"type":"Feature","id":11414,"properties":{"place":11414,"zipcode":11414,"positive":760,"total":1684,"percentpositive":45.13},"geometry":{
"type":"Point","coordinates":[-73.84321,40.658188]}
},
{"type":"Feature","id":11415,"properties":{"place":11415,"zipcode":11415,"positive":482,"total":1198,"percentpositive":40.23},"geometry":{
"type":"Point","coordinates":[-73.82973,40.706903]}
},
{"type":"Feature","id":11416,"properties":{"place":11416,"zipcode":11416,"positive":638,"total":1350,"percentpositive":47.26},"geometry":{
"type":"Point","coordinates":[-73.8503,40.683301]}
},
{"type":"Feature","id":11417,"properties":{"place":11417,"zipcode":11417,"positive":815,"total":1868,"percentpositive":43.63},"geometry":{
"type":"Point","coordinates":[-73.84476,40.675534]}
},
{"type":"Feature","id":11418,"properties":{"place":11418,"zipcode":11418,"positive":981,"total":2298,"percentpositive":42.69},"geometry":{
"type":"Point","coordinates":[-73.83365,40.698485]}
},
{"type":"Feature","id":11419,"properties":{"place":11419,"zipcode":11419,"positive":1063,"total":2338,"percentpositive":45.47},"geometry":{
"type":"Point","coordinates":[-73.82216,40.688688]}
},
{"type":"Feature","id":11420,"properties":{"place":11420,"zipcode":11420,"positive":1246,"total":2825,"percentpositive":44.11},"geometry":{
"type":"Point","coordinates":[-73.81443,40.673138]}
},
{"type":"Feature","id":11421,"properties":{"place":11421,"zipcode":11421,"positive":1097,"total":2459,"percentpositive":44.61},"geometry":{
"type":"Point","coordinates":[-73.85828,40.69087]}
},
{"type":"Feature","id":11422,"properties":{"place":11422,"zipcode":11422,"positive":903,"total":2059,"percentpositive":43.86},"geometry":{
"type":"Point","coordinates":[-73.73514,40.662538]}
},
{"type":"Feature","id":11423,"properties":{"place":11423,"zipcode":11423,"positive":989,"total":2174,"percentpositive":45.49},"geometry":{
"type":"Point","coordinates":[-73.76824,40.714261]}
},
{"type":"Feature","id":11426,"properties":{"place":11426,"zipcode":11426,"positive":474,"total":1097,"percentpositive":43.21},"geometry":{
"type":"Point","coordinates":[-73.72108,40.732239]}
},
{"type":"Feature","id":11427,"properties":{"place":11427,"zipcode":11427,"positive":717,"total":1591,"percentpositive":45.07},"geometry":{
"type":"Point","coordinates":[-73.74782,40.728235]}
},
{"type":"Feature","id":11428,"properties":{"place":11428,"zipcode":11428,"positive":624,"total":1301,"percentpositive":47.96},"geometry":{
"type":"Point","coordinates":[-73.74127,40.719981]}
},
{"type":"Feature","id":11429,"properties":{"place":11429,"zipcode":11429,"positive":871,"total":1747,"percentpositive":49.86},"geometry":{
"type":"Point","coordinates":[-73.73903,40.708833]}
},
{"type":"Feature","id":11432,"properties":{"place":11432,"zipcode":11432,"positive":1614,"total":3471,"percentpositive":46.5},"geometry":{
"type":"Point","coordinates":[-73.79324,40.714144]}
},
{"type":"Feature","id":11433,"properties":{"place":11433,"zipcode":11433,"positive":850,"total":1945,"percentpositive":43.7},"geometry":{
"type":"Point","coordinates":[-73.78734,40.696538]}
},
{"type":"Feature","id":11434,"properties":{"place":11434,"zipcode":11434,"positive":1868,"total":4352,"percentpositive":42.92},"geometry":{
"type":"Point","coordinates":[-73.7727,40.674888]}
},
{"type":"Feature","id":11435,"properties":{"place":11435,"zipcode":11435,"positive":1483,"total":3433,"percentpositive":43.2},"geometry":{
"type":"Point","coordinates":[-73.80986,40.700068]}
},
{"type":"Feature","id":11436,"properties":{"place":11436,"zipcode":11436,"positive":482,"total":1123,"percentpositive":42.92},"geometry":{
"type":"Point","coordinates":[-73.79687,40.674146]}
},
{"type":"Feature","id":11691,"properties":{"place":11691,"zipcode":11691,"positive":2049,"total":4201,"percentpositive":48.77},"geometry":{
"type":"Point","coordinates":[-73.75962,40.60002]}
},
{"type":"Feature","id":11692,"properties":{"place":11692,"zipcode":11692,"positive":539,"total":1206,"percentpositive":44.69},"geometry":{
"type":"Point","coordinates":[-73.79568,40.592939]}
},
{"type":"Feature","id":11693,"properties":{"place":11693,"zipcode":11693,"positive":301,"total":710,"percentpositive":42.39},"geometry":{
"type":"Point","coordinates":[-73.81978,40.596959]}
},
{"type":"Feature","id":11694,"properties":{"place":11694,"zipcode":11694,"positive":648,"total":1581,"percentpositive":40.99},"geometry":{
"type":"Point","coordinates":[-73.84721,40.57649]}
},
{"type":"Feature","id":11697,"properties":{"place":11697,"zipcode":11697,"positive":86,"total":225,"percentpositive":38.22},"geometry":{
"type":"Point","coordinates":[-73.90891,40.560167]}
}
]}
